{
  "generated_utc": "2026-01-27 05:10:00Z",
  "regions": {
    "Central": [
      { "code": "CXY", "name": "Capital City", "lat": 40.217, "lon": -76.852 },
      { "code": "MDT", "name": "Harrisburg Intl", "lat": 40.193, "lon": -76.763 }
    ],
    "Western": [
      { "code": "PIT", "name": "Pittsburgh Intl", "lat": 40.491, "lon": -80.233 },
      { "code": "LBE", "name": "Arnold Palmer Regional", "lat": 40.276, "lon": -79.404 }
    ],
    "Eastern": [
      { "code": "ABE", "name": "Lehigh Valley Intl", "lat": 40.651, "lon": -75.440 },
      { "code": "PHL", "name": "Philadelphia Intl", "lat": 39.872, "lon": -75.243 }
    ]
  },
  "airports": {
    "CXY": {
      "status": "OK",
      "flight_category": "VFR",
      "metar_raw": "KCXY 270551Z 24004KT 10SM FEW250 03/M06 A3012 RMK AO2 SLP210 T00281056"
    },
    "MDT": {
      "status": "OK",
      "flight_category": "VFR",
      "metar_raw": "KMDT 270551Z 24005KT 10SM FEW250 02/M06 A3011 RMK AO2 SLP207 T00221056"
    },
    "PIT": {
      "status": "OK",
      "flight_category": "MVFR",
      "metar_raw": "KPIT 270551Z 24007KT 6SM -SN SCT025 BKN040 M01/M06 A3005 RMK AO2"
    },
    "LBE": {
      "status": "IMPACT",
      "flight_category": "IFR",
      "metar_raw": "KLBE 270551Z 23006KT 2SM -SN OVC008 M02/M06 A2999 RMK AO2"
    },
    "ABE": {
      "status": "OK",
      "flight_category": "VFR",
      "metar_raw": "KABE 270551Z 25005KT 10SM FEW250 03/M07 A3010 RMK AO2"
    },
    "PHL": {
      "status": "OK",
      "flight_category": "VFR",
      "metar_raw": "KPHL 270551Z 24006KT 10SM FEW250 04/M06 A3013 RMK AO2"
    }
  }
}
