{
  "generated_utc": "2026-01-27 09:02:12Z",
  "regions": {
    "Western": [
      {
        "code": "PIT",
        "name": "Pittsburgh Intl",
        "lat": 40.492,
        "lon": -80.2327
      },
      {
        "code": "ERI",
        "name": "Erie Intl",
        "lat": 42.0831,
        "lon": -80.1739
      },
      {
        "code": "LBE",
        "name": "Arnold Palmer Regional",
        "lat": 40.2759,
        "lon": -79.4048
      },
      {
        "code": "JST",
        "name": "Johnstown–Cambria County",
        "lat": 40.3161,
        "lon": -78.8339
      },
      {
        "code": "DUJ",
        "name": "DuBois Regional",
        "lat": 41.1783,
        "lon": -78.8987
      }
    ],
    "Central": [
      {
        "code": "MDT",
        "name": "Harrisburg Intl",
        "lat": 40.1931,
        "lon": -76.7633
      },
      {
        "code": "CXY",
        "name": "Capital City",
        "lat": 40.2171,
        "lon": -76.8515
      },
      {
        "code": "SCE",
        "name": "State College Regional",
        "lat": 40.8493,
        "lon": -77.8487
      },
      {
        "code": "IPT",
        "name": "Williamsport Regional",
        "lat": 41.2421,
        "lon": -76.9211
      },
      {
        "code": "AOO",
        "name": "Altoona–Blair County",
        "lat": 40.2964,
        "lon": -78.32
      },
      {
        "code": "BFD",
        "name": "Bradford Regional",
        "lat": 41.8031,
        "lon": -78.6401
      }
    ],
    "Eastern": [
      {
        "code": "PHL",
        "name": "Philadelphia Intl",
        "lat": 39.8729,
        "lon": -75.2437
      },
      {
        "code": "ABP",
        "name": "Northeast Philadelphia",
        "lat": 40.0819,
        "lon": -75.0106
      },
      {
        "code": "ABE",
        "name": "Lehigh Valley Intl",
        "lat": 40.6521,
        "lon": -75.4408
      },
      {
        "code": "AVP",
        "name": "Wilkes-Barre/Scranton Intl",
        "lat": 41.3385,
        "lon": -75.7234
      },
      {
        "code": "RDG",
        "name": "Reading Regional",
        "lat": 40.3785,
        "lon": -75.9652
      },
      {
        "code": "LNS",
        "name": "Lancaster",
        "lat": 40.1217,
        "lon": -76.2961
      },
      {
        "code": "MPO",
        "name": "Pocono Mountains Municipal",
        "lat": 41.1375,
        "lon": -75.3789
      }
    ]
  },
  "airports": {
    "PIT": {
      "code": "PIT",
      "status": "CLOSED",
      "closed": false,
      "closure_reason": "",
      "events": [],
      "flight_category": "UNK",
      "impact_reason": "Airport closed",
      "metar_raw": "METAR KPIT 270851Z 21008KT 10SM FEW020 FEW250 M17/M22 A3015 RMK AO2 SLP243 60000 T11671222 58005\nMETAR KPIT 270751Z 23008G18KT 10SM FEW020 M16/M22 A3017 RMK AO2 SLP250 T11611222",
      "metar_time_utc": "",
      "updated_utc": "2026-01-27T09:01:16Z",
      "metar_icao": "KPIT",
      "metar_ts": 1769504524,
      "impact_detail": "Status CLOSED"
    },
    "ERI": {
      "code": "ERI",
      "status": "CLOSED",
      "closed": false,
      "closure_reason": "",
      "events": [],
      "flight_category": "UNK",
      "impact_reason": "Airport closed",
      "metar_raw": "METAR KERI 270851Z AUTO 19013G22KT 10SM SCT120 M16/M22 A3007 RMK AO2 SLP197 T11611222 58014\nMETAR KERI 270751Z AUTO 21014G21KT 10SM CLR M16/M21 A3010 RMK AO2 SLP210 T11611211",
      "metar_time_utc": "",
      "updated_utc": "2026-01-27T09:01:16Z",
      "metar_icao": "KERI",
      "metar_ts": 1769504525,
      "impact_detail": "Status CLOSED"
    },
    "LBE": {
      "code": "LBE",
      "status": "CLOSED",
      "closed": false,
      "closure_reason": "",
      "events": [],
      "flight_category": "UNK",
      "impact_reason": "Airport closed",
      "metar_raw": "METAR KLBE 270855Z AUTO 21011KT 10SM CLR M15/M20 A3019 RMK AO2\nMETAR KLBE 270835Z AUTO 22018KT 10SM FEW025 FEW030 M15/M19 A3020 RMK AO2\nMETAR KLBE 270815Z AUTO 23013KT 10SM FEW018 FEW025 FEW032 M14/M18 A3019 RMK AO2\nMETAR KLBE 270755Z AUTO 22014G19KT 9SM FEW013 SCT025 BKN029 M14/M17 A3020 RMK AO2\nMETAR KLBE 270735Z AUTO 22013G18KT 9SM OVC027 M13/M17 A3020 RMK AO2\nMETAR KLBE 270715Z AUTO 23016KT 7SM -SN OVC026 M13/M16 A3020 RMK AO2",
      "metar_time_utc": "",
      "updated_utc": "2026-01-27T09:01:16Z",
      "metar_icao": "KLBE",
      "metar_ts": 1769504525,
      "impact_detail": "Status CLOSED"
    },
    "JST": {
      "code": "JST",
      "status": "CLOSED",
      "closed": false,
      "closure_reason": "",
      "events": [],
      "flight_category": "UNK",
      "impact_reason": "Airport closed",
      "metar_raw": "METAR KJST 270854Z AUTO 26014G27KT 5SM HZ OVC018 M17/M20 A3000 RMK AO2 PK WND 26027/0850 UPB37E42SNE37 SLP209 P0000 60004 T11671200 58002\nSPECI KJST 270805Z AUTO 26017G24KT 3SM -SN OVC016 M16/M19 A3001 RMK AO2 P0000 T11611189\nMETAR KJST 270754Z AUTO 27018G27KT 2SM -SN OVC014 M16/M19 A3001 RMK AO2 PK WND 27032/0724 SLP214 P0004 T11611189\nSPECI KJST 270750Z AUTO 25016G25KT 2 1/2SM -SN OVC014 M16/M19 A3002 RMK AO2 PK WND 27032/0724 P0004",
      "metar_time_utc": "",
      "updated_utc": "2026-01-27T09:01:16Z",
      "metar_icao": "KJST",
      "metar_ts": 1769504526,
      "impact_detail": "Status CLOSED"
    },
    "DUJ": {
      "code": "DUJ",
      "status": "CLOSED",
      "closed": false,
      "closure_reason": "",
      "events": [],
      "flight_category": "UNK",
      "impact_reason": "Airport closed",
      "metar_raw": "METAR KDUJ 270853Z AUTO 26012KT 10SM OVC017 M16/M19 A3001 RMK AO2 SNB01E32 SLP200 P0000 60000 T11561189 58002\nSPECI KDUJ 270804Z AUTO 25012KT 4SM -SN OVC016 M15/M18 A3002 RMK AO2 SNB01 P0000 T11501183\nMETAR KDUJ 270753Z AUTO 25016G23KT 7SM OVC014 M15/M18 A3002 RMK AO2 PK WND 23026/0731 SNB0659E18 SLP202 P0000 T11501183",
      "metar_time_utc": "",
      "updated_utc": "2026-01-27T09:01:16Z",
      "metar_icao": "KDUJ",
      "metar_ts": 1769504526,
      "impact_detail": "Status CLOSED"
    },
    "MDT": {
      "code": "MDT",
      "status": "CLOSED",
      "closed": false,
      "closure_reason": "",
      "events": [],
      "flight_category": "UNK",
      "impact_reason": "Airport closed",
      "metar_raw": "METAR KMDT 270856Z 31006KT 10SM CLR M13/M18 A3015 RMK AO2 SLP216 T11281178 50006\nMETAR KMDT 270756Z 26007KT 10SM CLR M11/M16 A3015 RMK AO2 SLP217 T11061161",
      "metar_time_utc": "",
      "updated_utc": "2026-01-27T09:01:16Z",
      "metar_icao": "KMDT",
      "metar_ts": 1769504526,
      "impact_detail": "Status CLOSED"
    },
    "CXY": {
      "code": "CXY",
      "status": "CLOSED",
      "closed": false,
      "closure_reason": "",
      "events": [],
      "flight_category": "UNK",
      "impact_reason": "Airport closed",
      "metar_raw": "METAR KCXY 270856Z AUTO 25006KT 10SM CLR M11/M18 A3015 RMK AO2 SLP218 T11111183 50005\nMETAR KCXY 270756Z AUTO 27004KT 10SM CLR M11/M17 A3015 RMK AO2 SLP218 T11061172",
      "metar_time_utc": "",
      "updated_utc": "2026-01-27T09:01:16Z",
      "metar_icao": "KCXY",
      "metar_ts": 1769504527,
      "impact_detail": "Status CLOSED"
    },
    "SCE": {
      "code": "SCE",
      "status": "CLOSED",
      "closed": false,
      "closure_reason": "",
      "events": [],
      "flight_category": "UNK",
      "impact_reason": "Airport closed",
      "metar_raw": "",
      "metar_time_utc": "",
      "updated_utc": "2026-01-27T09:01:16Z",
      "metar_icao": "KSCE",
      "metar_ts": 1769504527,
      "impact_detail": "Status CLOSED"
    },
    "IPT": {
      "code": "IPT",
      "status": "CLOSED",
      "closed": false,
      "closure_reason": "",
      "events": [],
      "flight_category": "UNK",
      "impact_reason": "Airport closed",
      "metar_raw": "METAR KIPT 270854Z AUTO 00000KT 10SM OVC039 M14/M17 A3010 RMK AO2 SLP203 T11441172 53002 $\nMETAR KIPT 270754Z AUTO 32004KT 10SM FEW043 M12/M17 A3010 RMK AO2 SLP203 T11171172 $",
      "metar_time_utc": "",
      "updated_utc": "2026-01-27T09:01:16Z",
      "metar_icao": "KIPT",
      "metar_ts": 1769504528,
      "impact_detail": "Status CLOSED"
    },
    "AOO": {
      "code": "AOO",
      "status": "CLOSED",
      "closed": false,
      "closure_reason": "",
      "events": [],
      "flight_category": "UNK",
      "impact_reason": "Airport closed",
      "metar_raw": "METAR KAOO 270853Z AUTO 27011KT 10SM OVC020 M15/M20 A3007 RMK AO2 PK WND 27029/0801 UPB00E10 SLP217 P0000 60000 T11501200 50000\nMETAR KAOO 270753Z AUTO 27016G23KT 10SM OVC024 M13/M18 A3008 RMK AO2 SLP217 T11331183",
      "metar_time_utc": "",
      "updated_utc": "2026-01-27T09:01:16Z",
      "metar_icao": "KAOO",
      "metar_ts": 1769504528,
      "impact_detail": "Status CLOSED"
    },
    "BFD": {
      "code": "BFD",
      "status": "CLOSED",
      "closed": false,
      "closure_reason": "",
      "events": [],
      "flight_category": "UNK",
      "impact_reason": "Airport closed",
      "metar_raw": "METAR KBFD 270853Z AUTO 23008G19KT 5SM HZ FEW010 BKN015 OVC021 M16/M19 A2993 RMK AO2 SNE40 SLP178 P0000 60000 T11611189 58006\nSPECI KBFD 270839Z AUTO 24009G20KT 3SM -SN BKN016 OVC021 M16/M19 A2993 RMK AO2 P0000 T11561189\nSPECI KBFD 270820Z AUTO VRB03KT 2SM -SN OVC016 M15/M18 A2994 RMK AO2 P0000 T11501178\nMETAR KBFD 270753Z AUTO VRB05G21KT 3SM -SN OVC017 M15/M18 A2994 RMK AO2 PK WND 23026/0705 SLP181 P0000 T11501178\nSPECI KBFD 270751Z AUTO 25007G21KT 3SM -SN OVC017 M15/M18 A2994 RMK AO2 PK WND 23026/0705 P0000\nSPECI KBFD 270739Z AUTO 25007G17KT 2 1/2SM -SN OVC017 M15/M18 A2994 RMK AO2 PK WND 23026/0705 P0000 T11501178\nSPECI KBFD 270727Z AUTO VRB06KT 1 3/4SM -SN OVC017 M15/M18 A2994 RMK AO2 PK WND 23026/0705 P0000 T11501178",
      "metar_time_utc": "",
      "updated_utc": "2026-01-27T09:01:16Z",
      "metar_icao": "KBFD",
      "metar_ts": 1769504529,
      "impact_detail": "Status CLOSED"
    },
    "PHL": {
      "code": "PHL",
      "status": "CLOSED",
      "closed": false,
      "closure_reason": "",
      "events": [],
      "flight_category": "UNK",
      "impact_reason": "Airport closed",
      "metar_raw": "METAR KPHL 270754Z 29008G18KT 10SM CLR M07/M16 A3015 RMK SLP211 T10721161",
      "metar_time_utc": "",
      "updated_utc": "2026-01-27T09:01:16Z",
      "metar_icao": "KPHL",
      "metar_ts": 1769504529,
      "impact_detail": "Status CLOSED"
    },
    "ABP": {
      "code": "ABP",
      "status": "CLOSED",
      "closed": false,
      "closure_reason": "",
      "events": [],
      "flight_category": "UNK",
      "impact_reason": "Airport closed",
      "metar_raw": "",
      "metar_time_utc": "",
      "updated_utc": "2026-01-27T09:01:16Z",
      "metar_icao": "KABP",
      "metar_ts": 1769504529,
      "impact_detail": "Status CLOSED"
    },
    "ABE": {
      "code": "ABE",
      "status": "CLOSED",
      "closed": false,
      "closure_reason": "",
      "events": [],
      "flight_category": "UNK",
      "impact_reason": "Airport closed",
      "metar_raw": "METAR KABE 270851Z AUTO 26006KT 10SM CLR M12/M18 A3010 RMK AO2 SLP199 T11171183 50013\nMETAR KABE 270751Z AUTO 28007KT 10SM CLR M10/M18 A3010 RMK AO2 SLP199 T11001183",
      "metar_time_utc": "",
      "updated_utc": "2026-01-27T09:01:16Z",
      "metar_icao": "KABE",
      "metar_ts": 1769504529,
      "impact_detail": "Status CLOSED"
    },
    "AVP": {
      "code": "AVP",
      "status": "CLOSED",
      "closed": false,
      "closure_reason": "",
      "events": [],
      "flight_category": "UNK",
      "impact_reason": "Airport closed",
      "metar_raw": "METAR KAVP 270854Z 24006KT 10SM CLR M14/M19 A3003 RMK AO2 SLP186 T11391189 51008\nMETAR KAVP 270754Z 23004KT 10SM CLR M13/M19 A3003 RMK AO2 SLP185 T11281189",
      "metar_time_utc": "",
      "updated_utc": "2026-01-27T09:01:16Z",
      "metar_icao": "KAVP",
      "metar_ts": 1769504530,
      "impact_detail": "Status CLOSED"
    },
    "RDG": {
      "code": "RDG",
      "status": "CLOSED",
      "closed": false,
      "closure_reason": "",
      "events": [],
      "flight_category": "UNK",
      "impact_reason": "Airport closed",
      "metar_raw": "METAR KRDG 270854Z AUTO 29005KT 10SM FEW033 SCT044 M09/M17 A3012 RMK AO2 SLP211 6//// T10941172 50008 PNO $\nMETAR KRDG 270754Z AUTO 27007KT 10SM CLR M09/M18 A3013 RMK AO2 SLP214 T10891178 PNO $",
      "metar_time_utc": "",
      "updated_utc": "2026-01-27T09:01:16Z",
      "metar_icao": "KRDG",
      "metar_ts": 1769504530,
      "impact_detail": "Status CLOSED"
    },
    "LNS": {
      "code": "LNS",
      "status": "CLOSED",
      "closed": false,
      "closure_reason": "",
      "events": [],
      "flight_category": "UNK",
      "impact_reason": "Airport closed",
      "metar_raw": "METAR KLNS 270853Z AUTO 26006KT 10SM CLR M11/M17 A3014 RMK AO2 SLP213 T11111167 51008\nMETAR KLNS 270753Z AUTO 29009KT 10SM CLR M10/M17 A3014 RMK AO2 SLP213 T11001172",
      "metar_time_utc": "",
      "updated_utc": "2026-01-27T09:01:16Z",
      "metar_icao": "KLNS",
      "metar_ts": 1769504530,
      "impact_detail": "Status CLOSED"
    },
    "MPO": {
      "code": "MPO",
      "status": "CLOSED",
      "closed": false,
      "closure_reason": "",
      "events": [],
      "flight_category": "UNK",
      "impact_reason": "Airport closed",
      "metar_raw": "METAR KMPO 270853Z AUTO 28012G21KT 10SM M15/M20 A2991 RMK AO2 SLP170 T11501200 53014\nMETAR KMPO 270753Z AUTO 28012G21KT 10SM M14/M20 A2990 RMK AO2 PK WND 28026/0656 SLP164 T11441200",
      "metar_time_utc": "",
      "updated_utc": "2026-01-27T09:01:16Z",
      "metar_icao": "KMPO",
      "metar_ts": 1769504532,
      "impact_detail": "Status CLOSED"
    }
  },
  "source": "nasstatus.faa.gov + aviationweather.gov Data API (metar)",
  "note": "Closures from FAA NAS Status; flight categories from AWC METAR feed."
}